GOES 1 (SMS-C)          
1 08366U 75100A   25068.45501514 -.00000247  00000+0  00000+0 0  9994
2 08366   5.7928 283.2160 0003961 349.9655 337.2743  1.00276386180403
GOES 2                  
1 10061U 77048A   25068.86133403 -.00000228  00000+0  00000+0 0  9994
2 10061   7.5249 297.2642 0013217  42.5161 305.0607  0.99402349 41659
GOES 3                  
1 10953U 78062A   25068.16531153 -.00000019  00000+0  00000+0 0  9996
2 10953   7.9543 302.6719 0001347 352.2249 191.0282  0.99357829123919
GOES 4                  
1 11964U 80074A   25068.72817491  .00000043  00000+0  00000+0 0  9995
2 11964   8.9969 306.4598 0032310  96.2927 243.0308  0.99229931122822
GOES 5                  
1 12472U 81049A   25068.16835234 -.00000231  00000+0  00000+0 0  9996
2 12472  10.1937 318.7571 0002839 323.3450 220.0008  1.00329524118180
GOES 6                  
1 14050U 83041A   25068.15141308 -.00000255  00000+0  00000+0 0  9991
2 14050  10.9349 324.2844 0001366 245.3200 292.3789  1.00300772211359
GOES 7                  
1 17561U 87022A   25066.96960291 -.00000155  00000+0  00000+0 0  9990
2 17561  13.3518 340.9315 0002989  34.9239 131.2912  0.99908479122308
GOES 8                  
1 23051U 94022A   25068.71271020 -.00000288  00000+0  00000+0 0  9996
2 23051  14.0314  17.1306 0004532  23.8627 161.6920  0.98907299119533
GOES 9                  
1 23581U 95025A   25068.54781128 -.00000082  00000+0  00000+0 0  9996
2 23581  13.5474  17.8512 0003576 171.1883 203.1018  0.98800341108174
GOES 10                 
1 24786U 97019A   25068.71349212 -.00000318  00000+0  00000+0 0  9994
2 24786  12.5778  24.3501 0030376 228.3925 314.2982  0.99127213101469
GOES 11                 
1 26352U 00022A   25068.48642557  .00000024  00000+0  00000+0 0  9998
2 26352  10.8146  50.8296 0004678 246.6114 122.6623  0.99039206 47875
GOES 12                 
1 26871U 01031A   25068.75067692 -.00000269  00000+0  00000+0 0  9998
2 26871  11.3355  41.0670 0007822 294.5500  71.8947  0.99139720 86163
EWS-G1 (GOES 13)        
1 29155U 06018A   25068.75684542 -.00000194  00000+0  00000+0 0  9992
2 29155   3.3216  82.0854 0066033 261.7840  95.9890  0.98833077 38659
GOES 14                 
1 35491U 09033A   25068.52105213 -.00000086  00000+0  00000+0 0  9990
2 35491   0.4765  89.5152 0001156 178.0401 339.4093  1.00268928  1930
EWS-G2 (GOES 15)        
1 36411U 10008A   25068.76892178  .00000021  00000+0  00000+0 0  9994
2 36411   0.0775  92.5522 0003951 188.4716 224.7562  1.00270730 54988
GOES 16                 
1 41866U 16071A   25068.88435731 -.00000265  00000+0  00000+0 0  9992
2 41866   0.0918 286.4026 0001865  71.7707  52.7234  1.00269043 30441
GOES 17                 
1 43226U 18022A   25068.87888385 -.00000110  00000+0  00000+0 0  9997
2 43226   0.0503 314.8677 0001195 119.4369 305.4606  1.00271900 25766
GOES 18                 
1 51850U 22021A   25068.72956499  .00000079  00000+0  00000+0 0  9992
2 51850   0.0222 334.1895 0000107  25.6698 293.4186  1.00270521 11142
GOES 19                 
1 60133U 24119A   25068.88183779 -.00000200  00000+0  00000+0 0  9993
2 60133   0.0069  93.0987 0001940 256.8225  45.8337  1.00272618  2302
